STARLINK-6214
1 56480U 23064AJ  26092.78482764  .00013367  00000+0  58556-3 0  9994
2 56480  69.9948  29.5776 0002430 250.4422 109.6487 15.22141513160203
